OBJECT_NAME,OBJECT_ID,EPOCH,MEAN_MOTION,ECCENTRICITY,INCLINATION,RA_OF_ASC_NODE,ARG_OF_PERICENTER,MEAN_ANOMALY,EPHEMERIS_TYPE,CLASSIFICATION_TYPE,NORAD_CAT_ID,ELEMENT_SET_NO,REV_AT_EPOCH,BSTAR,MEAN_MOTION_DOT,MEAN_MOTION_DDOT
SPACEMOBILE-004,2024-163E,2026-07-09T13:48:46.986048,15.20814564,.00081135,52.9654,205.9666,207.5207,152.5359,0,U,61049,999,10117,-.61664582E-3,-.14088E-3,0
CZ-8A R/B,2025-231K,2026-07-11T12:11:40.780896,14.30161531,.01165156,50.0050,295.8455,309.6324,49.4354,0,U,66004,999,3842,.24968206E-4,-.94E-6,0
SZ-21 MODULE,2025-246C,2026-07-10T22:58:21.164160,15.78504518,.00073391,41.4697,159.0508,191.9167,168.1505,0,U,66515,999,3749,.20325041E-3,.36243E-3,0
SPACEMOBILE-006,2025-309A,2026-07-11T11:01:53.785056,15.18647644,.00104031,52.9930,220.4489,203.4538,156.5982,0,U,67232,999,3028,.25640547E-4,.216E-5,0
SPACEMOBILE-008,2026-139A,2026-07-11T07:42:17.182944,15.12799068,.00048794,52.9941,152.9965,47.3692,312.7710,0,U,69589,999,363,.21806253E-4,.86E-6,0
SPACEMOBILE-009,2026-139B,2026-07-11T12:30:08.483328,15.12692406,.00051321,52.9933,152.1023,43.2568,316.8825,0,U,69590,999,366,.17235269E-4,.4E-7,0
SPACEMOBILE-010,2026-139C,2026-07-10T22:17:40.116192,15.12522766,.0004992,52.9937,154.8205,33.2635,326.8669,0,U,69591,999,358,.19201725E-4,.38E-6,0
